ZHUHAI-1 01 (CAS-4A)    
1 42761U 17034D   23175.18208277  .00009747  00000+0  48693-3 0  9997
2 42761  43.0148  75.3284 0010868 154.7266 205.4116 15.17560297332702
MAX VALIER SAT          
1 42778U 17036P   23174.66849404  .00027091  00000+0  69642-3 0  9991
2 42778  97.1537 209.3597 0010092  85.6340 274.6059 15.39196217333720
RADFXSAT (FOX-1B)       
1 43017U 17073E   23175.25599372  .00009876  00000+0  68325-3 0  9999
2 43017  97.6294  59.3128 0234220  46.2733 315.7618 14.86230862302231
FOX-1D (AO-92)          
1 43137U 18004AC  23174.21726983  .00041095  00000+0  82565-3 0  9993
2 43137  97.3280 253.4752 0006572 120.1242 240.0659 15.46517790303231
DIWATA-2B               
1 43678U 18084H   23175.42480761  .00002160  00000+0  21096-3 0  9998
2 43678  98.0241 319.5399 0010556 132.5545 227.6567 14.93458059253345
ES'HAIL 2               
1 43700U 18090A   23174.74564605  .00000154  00000+0  00000+0 0  9994
2 43700   0.0134  46.1903 0001624  81.2956  78.3954  1.00273454 16998
FOX-1CLIFF (AO-95)      
1 43770U 18099N   23174.42990450  .00005869  00000+0  47676-3 0  9998
2 43770  97.5687 235.7981 0013695 118.4018 241.8588 14.99904371248543
ITASAT 1                
1 43786U 18099AE  23175.43435336  .00005504  00000+0  45114-3 0  9995
2 43786  97.5725 237.8083 0014210 103.4641 256.8167 14.99581078248734
JY1SAT (JO-97)          
1 43803U 18099AX  23174.71562245  .00007338  00000+0  57870-3 0  9994
2 43803  97.5703 237.1151 0015521  73.1102 287.1822 15.00938662248676
UWE-4                   
1 43880U 18111E   23175.28432334  .00007608  00000+0  57818-3 0  9994
2 43880  97.6341  80.3505 0019085 146.8249 213.4176 15.02292334243434
NEXUS (FO-99)           
1 43937U 19003F   23175.12234669  .00065590  00000+0  10152-2 0  9995
2 43937  97.0847 202.2468 0010564 235.9729 124.0522 15.53779188247126
JAISAT-1                
1 44419U 19038F   23174.37209272  .00025401  00000+0  85775-3 0  9998
2 44419  97.6738 156.2996 0011875 278.9717  81.0179 15.30596387219482
DUCHIFAT-3              
1 44854U 19089C   23175.03448290  .00009818  00000+0  65800-3 0  9997
2 44854  36.9630  50.3630 0008998   1.5401 358.5370 15.06365556193866
CAS-6 (TIANQIN 1)       
1 44881U 19093C   23175.45097109  .00001310  00000+0  16922-3 0  9997
2 44881  97.8615 253.7785 0015900  57.8895 302.3860 14.82557750189876
RS-44 & BREEZE-KM R/B   
1 44909U 19096E   23175.18089018  .00000033  00000+0  85380-4 0  9997
2 44909  82.5219 343.2972 0217689 170.3488 190.1901 12.79721549163108
BY70-2                  
1 45857U 20042B   23175.32574183  .00020053  00000+0  20406-2 0  9991
2 45857  97.9251 255.2490 0007314 347.5061  12.5974 14.90756972160603
SALSAT                  
1 46495U 20068K   23172.83279536  .00004036  00000+0  26739-3 0  9994
2 46495  97.7704 120.8847 0017405 103.1112 257.2059 15.07774126149778
RADFXSAT-2 (AO-109)     
1 47311U 21002C   23174.99946818  .00030118  00000+0  76825-3 0  9995
2 47311  60.6816  32.3475 0010707 188.7959 171.2950 15.39335414135340
UVSQ-SAT                
1 47438U 21006AB  23175.12001338  .00017656  00000+0  71617-3 0  9990
2 47438  97.3831 232.1271 0010786  65.1018 295.1340 15.24628204133702
DIY-1 (ARDUIQUBE)       
1 47963U 21022AH  23175.22410101  .00407073  00000+0  36282-2 0  9998
2 47963  97.4915  84.3035 0006757 166.1770 193.9677 15.67179611123699
XW-3 (CAS-9)            
1 50466U 21131B   23175.33199009  .00000723  00000+0  24901-3 0  9991
2 50466  98.5519 256.8548 0005451 114.4287 245.7469 14.38934584 78382
TEVEL-3                 
1 50988U 22002E   23175.26465476  .00023043  00000+0  91310-3 0  9992
2 50988  97.4322 242.1820 0007772 198.2240 161.8721 15.25382508 79840
TEVEL-8                 
1 50989U 22002F   23175.28371144  .00022724  00000+0  90237-3 0  9995
2 50989  97.4337 242.2609 0007840 197.3937 162.7033 15.25314754 79846
TEVEL-5                 
1 50998U 22002Q   23175.27103098  .00024221  00000+0  93546-3 0  9995
2 50998  97.4316 242.5801 0009080 194.1756 165.9229 15.26219239 79870
TEVEL-6                 
1 50999U 22002R   23175.26955466  .00024145  00000+0  93255-3 0  9991
2 50999  97.4315 242.5732 0009055 194.0957 166.0030 15.26219719 79872
TEVEL-1                 
1 51013U 22002AF  23175.27466976  .00023077  00000+0  91574-3 0  9998
2 51013  97.4316 242.1341 0007724 198.1206 161.9758 15.25335532 79845
TEVEL-7                 
1 51062U 22002CG  23175.28462312  .00022854  00000+0  90695-3 0  9998
2 51062  97.4333 242.2348 0007810 197.0558 163.0418 15.25334191 79846
TEVEL-4                 
1 51063U 22002CH  23175.29094359  .00022370  00000+0  88927-3 0  9990
2 51063  97.4332 242.2242 0007806 196.9069 163.1910 15.25281140 79842
TEVEL-2                 
1 51069U 22002CP  23175.26647023  .00023305  00000+0  92333-3 0  9990
2 51069  97.4318 242.1548 0007764 197.9995 162.0969 15.25386168 79840
GREENCUBE               
1 53106U 22080B   23172.41016717 -.00000003  00000+0  00000+0 0  9991
2 53106  70.1617 318.2520 0008546 184.7855 175.2724  6.42556995 22026
RS29S (SXC3-2110 CYCLO*)
1 53373U 22096D   23175.35440297  .00036221  00000+0  92334-3 0  9999
2 53373  97.4125  81.7332 0003390 108.4457 251.7157 15.39443330 48790
RS32S (SXC3-212 MONITO*)
1 53374U 22096E   23175.32753938  .00032269  00000+0  84727-3 0  9991
2 53374  97.4103  81.5730 0003911 106.4443 253.7232 15.38557647 48780
RS34S (SXC3-218 KUZBAS*)
1 53375U 22096F   23175.29275829  .00027945  00000+0  78427-3 0  9991
2 53375  97.4130  81.2099 0003723 103.7818 256.3841 15.36522149 48752
RS23S (SXC3-21 UTMN)    
1 53376U 22096G   23175.31277747  .00027434  00000+0  75682-3 0  9999
2 53376  97.4126  81.3283 0003469 104.8912 255.2716 15.37061439 48769
RS28S (SXC3-214 MIET-A*)
1 53377U 22096H   23175.30463632  .00024781  00000+0  70657-3 0  9998
2 53377  97.4138  81.2024 0003552 102.8612 257.3029 15.36051714 48756
RS26S (KAI-1)           
1 53378U 22096J   23175.35023667  .00021766  00000+0  65103-3 0  9994
2 53378  97.4153  81.0064 0003347 100.2810 259.8811 15.34571946 48747
RS19S (SXC3-219 ISOI)   
1 53381U 22096M   23175.31366280  .00026204  00000+0  72683-3 0  9998
2 53381  97.4126  81.4752 0004737  64.2721 295.9012 15.36896907 48779
RS21S (CUBESX-HSE-2)    
1 53383U 22096P   23175.34946839  .00028170  00000+0  76934-3 0  9994
2 53383  97.4129  81.5916 0005187  62.7039 297.4733 15.37361899 48788
RS30S (SXC3-217 SIREN)  
1 53384U 22096Q   23175.32318515  .00023284  00000+0  66956-3 0  9991
2 53384  97.4143  81.3366 0005014  58.7634 301.4100 15.35791278 48765
RS20S (GEOSCAN-EDELVEIS)
1 53385U 22096R   23175.31369090  .00037386  00000+0  90697-3 0  9992
2 53385  97.4111  82.2259 0005217  55.4609 304.7130 15.40938850 48857
RS33S (SXC3-215 VIZARD) 
1 53386U 22096S   23175.34055679  .00053054  00000+0  11235-2 0  9991
2 53386  97.4112  82.9491 0005545  63.0729 297.1085 15.44922571 48891
CAS-5A (FO-118)         
1 54684U 22167C   23175.34591246  .00012470  00000+0  68517-3 0  9990
2 54684  97.5635 312.8744 0012399 312.6434  47.3752 15.14183364 29768
